start=new Date('2021-12-04T00:00:00.000Z').valueOf();
sats=[{"INCLINATION":"53.0555","OBJECT_TYPE":"PAYLOAD","SEMIMAJOR_AXIS":"6925.406","MEAN_MOTION_DDOT":"0.0000000000000","REF_FRAME":"TEME","PERIOD":"95.593","TIME_SYSTEM":"UTC","MEAN_ELEMENT_THEORY":"SGP4","TLE_LINE2":"2 48119  53.0555 301.1915 0001646  61.7409 298.3746 15.06381392 38011","GP_ID":"191039334","EPHEMERIS_TYPE":"0","OBJECT_NAME":"STARLINK-2459","COUNTRY_CODE":"US","FILE":"3231910","BSTAR":"-0.00002489000000","CLASSIFICATION_TYPE":"U","APOAPSIS":"548.411","LAUNCH_DATE":"2021-04-07","MEAN_MOTION_DOT":"-0.00000652","PERIAPSIS":"546.131","RCS_SIZE":"LARGE","MEAN_MOTION":"15.06381392","ECCENTRICITY":"0.00016460","OBJECT_ID":"2021-027AD","MEAN_ANOMALY":"298.3746","NORAD_CAT_ID":"48119","SITE":"AFETR","ELEMENT_SET_NO":"999","CENTER_NAME":"EARTH","REV_AT_EPOCH":"3801","DECAY_DATE":null,"TLE_LINE1":"1 48119U 21027AD  21337.70292335 -.00000652  00000-0 -24890-4 0  9994","RA_OF_ASC_NODE":"301.1915","EPOCH":"2021-12-03T16:52:12.577440","ARG_OF_PERICENTER":"61.7409"},{"REF_FRAME":"TEME","MEAN_MOTION_DDOT":"0.0000000000000","OBJECT_TYPE":"PAYLOAD","INCLINATION":"53.0567","SEMIMAJOR_AXIS":"6925.737","GP_ID":"191011631","TLE_LINE2":"2 48120  53.0567 322.6676 0002713  65.1836 294.9435 15.06273305 37702","COUNTRY_CODE":"US","EPHEMERIS_TYPE":"0","OBJECT_NAME":"STARLINK-2460","TIME_SYSTEM":"UTC","PERIOD":"95.600","MEAN_ELEMENT_THEORY":"SGP4","MEAN_MOTION":"15.06273305","ECCENTRICITY":"0.00027130","FILE":"3231740","BSTAR":"0.00186920000000","MEAN_MOTION_DOT":"0.00027575","LAUNCH_DATE":"2021-04-07","PERIAPSIS":"545.723","RCS_SIZE":"LARGE","APOAPSIS":"549.481","CLASSIFICATION_TYPE":"U","TLE_LINE1":"1 48120U 21027AE  21337.37672950  .00027575  00000-0  18692-2 0  9996","REV_AT_EPOCH":"3770","DECAY_DATE":null,"RA_OF_ASC_NODE":"322.6676","EPOCH":"2021-12-03T09:02:29.428800","ARG_OF_PERICENTER":"65.1836","MEAN_ANOMALY":"294.9435","NORAD_CAT_ID":"48120","SITE":"AFETR","OBJECT_ID":"2021-027AE","CENTER_NAME":"EARTH","ELEMENT_SET_NO":"999"},{"MEAN_MOTION":"15.06395756","ECCENTRICITY":"0.00021190","BSTAR":"0.00002019700000","FILE":"3231740","LAUNCH_DATE":"2021-04-07","PERIAPSIS":"545.759","MEAN_MOTION_DOT":"0.00000019","RCS_SIZE":"LARGE","CLASSIFICATION_TYPE":"U","APOAPSIS":"548.694","TLE_LINE1":"1 48121U 21027AF  21337.34813279  .00000019  00000-0  20197-4 0  9994","REV_AT_EPOCH":"3782","DECAY_DATE":null,"EPOCH":"2021-12-03T08:21:18.673056","RA_OF_ASC_NODE":"312.7951","ARG_OF_PERICENTER":"61.6682","MEAN_ANOMALY":"298.4521","NORAD_CAT_ID":"48121","SITE":"AFETR","OBJECT_ID":"2021-027AF","CENTER_NAME":"EARTH","ELEMENT_SET_NO":"999","REF_FRAME":"TEME","MEAN_MOTION_DDOT":"0.0000000000000","INCLINATION":"53.0567","OBJECT_TYPE":"PAYLOAD","SEMIMAJOR_AXIS":"6925.362","GP_ID":"191012381","TLE_LINE2":"2 48121  53.0567 312.7951 0002119  61.6682 298.4521 15.06395756 37822","COUNTRY_CODE":"US","EPHEMERIS_TYPE":"0","OBJECT_NAME":"STARLINK-2462","PERIOD":"95.592","TIME_SYSTEM":"UTC","MEAN_ELEMENT_THEORY":"SGP4"},{"TLE_LINE2":"2 48122  53.0561 307.4873 0001803  54.2675 305.8482 15.06399770 37919","GP_ID":"191010630","EPHEMERIS_TYPE":"0","OBJECT_NAME":"STARLINK-2463","COUNTRY_CODE":"US","PERIOD":"95.592","TIME_SYSTEM":"UTC","MEAN_ELEMENT_THEORY":"SGP4","MEAN_MOTION_DDOT":"0.0000000000000","REF_FRAME":"TEME","OBJECT_TYPE":"PAYLOAD","INCLINATION":"53.0561","SEMIMAJOR_AXIS":"6925.349","REV_AT_EPOCH":"3791","DECAY_DATE":null,"TLE_LINE1":"1 48122U 21027AG  21337.41584048  .00000788  00000-0  71799-4 0  9999","EPOCH":"2021-12-03T09:58:48.617472","RA_OF_ASC_NODE":"307.4873","ARG_OF_PERICENTER":"54.2675","OBJECT_ID":"2021-027AG","NORAD_CAT_ID":"48122","MEAN_ANOMALY":"305.8482","SITE":"AFETR","ELEMENT_SET_NO":"999","CENTER_NAME":"EARTH","MEAN_MOTION":"15.06399770","ECCENTRICITY":"0.00018030","BSTAR":"0.00007179900000","FILE":"3231740","APOAPSIS":"548.463","CLASSIFICATION_TYPE":"U","LAUNCH_DATE":"2021-04-07","PERIAPSIS":"545.966","MEAN_MOTION_DOT":"0.00000788","RCS_SIZE":"LARGE"},{"OBJECT_ID":"2021-027AH","SITE":"AFETR","NORAD_CAT_ID":"48123","MEAN_ANOMALY":"303.2029","ELEMENT_SET_NO":"999","CENTER_NAME":"EARTH","DECAY_DATE":null,"REV_AT_EPOCH":"3796","TLE_LINE1":"1 48123U 21027AH  21337.29008508  .00000505  00000-0  52806-4 0  9993","ARG_OF_PERICENTER":"56.9163","EPOCH":"2021-12-03T06:57:43.350912","RA_OF_ASC_NODE":"303.0474","BSTAR":"0.00005280600000","FILE":"3231740","APOAPSIS":"548.690","CLASSIFICATION_TYPE":"U","RCS_SIZE":"LARGE","LAUNCH_DATE":"2021-04-07","PERIAPSIS":"545.762","MEAN_MOTION_DOT":"0.00000505","MEAN_MOTION":"15.06396017","ECCENTRICITY":"0.00021140","PERIOD":"95.592","TIME_SYSTEM":"UTC","MEAN_ELEMENT_THEORY":"SGP4","TLE_LINE2":"2 48123  53.0560 303.0474 0002114  56.9163 303.2029 15.06396017 37960","GP_ID":"191010880","OBJECT_NAME":"STARLINK-2464","EPHEMERIS_TYPE":"0","COUNTRY_CODE":"US","OBJECT_TYPE":"PAYLOAD","INCLINATION":"53.0560","SEMIMAJOR_AXIS":"6925.361","MEAN_MOTION_DDOT":"0.0000000000000","REF_FRAME":"TEME"},{"SITE":"AFETR","NORAD_CAT_ID":"48124","MEAN_ANOMALY":"300.0569","OBJECT_ID":"2021-027AJ","CENTER_NAME":"EARTH","ELEMENT_SET_NO":"999","TLE_LINE1":"1 48124U 21027AJ  21337.42185454  .00000734  00000-0  68157-4 0  9995","DECAY_DATE":null,"REV_AT_EPOCH":"3783","ARG_OF_PERICENTER":"60.0596","RA_OF_ASC_NODE":"312.4717","EPOCH":"2021-12-03T10:07:28.232256","BSTAR":"0.00006815700000","FILE":"3231740","RCS_SIZE":"LARGE","LAUNCH_DATE":"2021-04-07","MEAN_MOTION_DOT":"0.00000734","PERIAPSIS":"545.978","CLASSIFICATION_TYPE":"U","APOAPSIS":"548.444","MEAN_MOTION":"15.06400775","ECCENTRICITY":"0.00017800","TIME_SYSTEM":"UTC","PERIOD":"95.592","MEAN_ELEMENT_THEORY":"SGP4","GP_ID":"191012131","TLE_LINE2":"2 48124  53.0570 312.4717 0001780  60.0596 300.0569 15.06400775 37837","COUNTRY_CODE":"US","OBJECT_NAME":"STARLINK-2465","EPHEMERIS_TYPE":"0","OBJECT_TYPE":"PAYLOAD","INCLINATION":"53.0570","SEMIMAJOR_AXIS":"6925.346","REF_FRAME":"TEME","MEAN_MOTION_DDOT":"0.0000000000000"},{"TIME_SYSTEM":"UTC","PERIOD":"95.592","MEAN_ELEMENT_THEORY":"SGP4","GP_ID":"191038333","TLE_LINE2":"2 48125  53.0569 320.7192 0001918  63.2958 296.8228 15.06399463 37762","COUNTRY_CODE":"US","OBJECT_NAME":"STARLINK-2466","EPHEMERIS_TYPE":"0","INCLINATION":"53.0569","OBJECT_TYPE":"PAYLOAD","SEMIMAJOR_AXIS":"6925.350","REF_FRAME":"TEME","MEAN_MOTION_DDOT":"0.0000000000000","SITE":"AFETR","NORAD_CAT_ID":"48125","MEAN_ANOMALY":"296.8228","OBJECT_ID":"2021-027AK","CENTER_NAME":"EARTH","ELEMENT_SET_NO":"999","TLE_LINE1":"1 48125U 21027AK  21337.81070210  .00002212  00000-0  16737-3 0  9991","DECAY_DATE":null,"REV_AT_EPOCH":"3776","ARG_OF_PERICENTER":"63.2958","RA_OF_ASC_NODE":"320.7192","EPOCH":"2021-12-03T19:27:24.661440","FILE":"3231910","BSTAR":"0.00016737000000","RCS_SIZE":"LARGE","MEAN_MOTION_DOT":"0.00002212","LAUNCH_DATE":"2021-04-07","PERIAPSIS":"545.887","APOAPSIS":"548.543","CLASSIFICATION_TYPE":"U","MEAN_MOTION":"15.06399463","ECCENTRICITY":"0.00019180"},{"RCS_SIZE":"LARGE","MEAN_MOTION_DOT":"0.00003000","LAUNCH_DATE":"2021-04-07","PERIAPSIS":"545.850","CLASSIFICATION_TYPE":"U","APOAPSIS":"548.639","BSTAR":"0.00022027000000","FILE":"3231740","ECCENTRICITY":"0.00020140","MEAN_MOTION":"15.06389939","CENTER_NAME":"EARTH","ELEMENT_SET_NO":"999","SITE":"AFETR","NORAD_CAT_ID":"48126","MEAN_ANOMALY":"290.5152","OBJECT_ID":"2021-027AL","ARG_OF_PERICENTER":"69.6054","EPOCH":"2021-12-03T04:34:24.423744","RA_OF_ASC_NODE":"303.4981","TLE_LINE1":"1 48126U 21027AL  21337.19056046  .00003000  00000-0  22027-3 0  9999","DECAY_DATE":null,"REV_AT_EPOCH":"3795","SEMIMAJOR_AXIS":"6925.379","OBJECT_TYPE":"PAYLOAD","INCLINATION":"53.0529","REF_FRAME":"TEME","MEAN_MOTION_DDOT":"0.0000000000000","MEAN_ELEMENT_THEORY":"SGP4","TIME_SYSTEM":"UTC","PERIOD":"95.593","COUNTRY_CODE":"US","OBJECT_NAME":"STARLINK-2467","EPHEMERIS_TYPE":"0","GP_ID":"191011130","TLE_LINE2":"2 48126  53.0529 303.4981 0002014  69.6054 290.5152 15.06389939 37953"},{"MEAN_ELEMENT_THEORY":"SGP4","TIME_SYSTEM":"UTC","PERIOD":"95.593","EPHEMERIS_TYPE":"0","OBJECT_NAME":"STARLINK-2468","COUNTRY_CODE":"US","TLE_LINE2":"2 48127  53.0572 320.8650 0001821  52.2485 307.8668 15.06393062 37753","GP_ID":"191039335","SEMIMAJOR_AXIS":"6925.370","OBJECT_TYPE":"PAYLOAD","INCLINATION":"53.0572","MEAN_MOTION_DDOT":"0.0000000000000","REF_FRAME":"TEME","ELEMENT_SET_NO":"999","CENTER_NAME":"EARTH","OBJECT_ID":"2021-027AM","MEAN_ANOMALY":"307.8668","NORAD_CAT_ID":"48127","SITE":"AFETR","RA_OF_ASC_NODE":"320.8650","EPOCH":"2021-12-03T18:41:00.223584","ARG_OF_PERICENTER":"52.2485","REV_AT_EPOCH":"3775","DECAY_DATE":null,"TLE_LINE1":"1 48127U 21027AM  21337.77847481 -.00000132  00000-0  10025-4 0  9995","APOAPSIS":"548.496","CLASSIFICATION_TYPE":"U","PERIAPSIS":"545.974","LAUNCH_DATE":"2021-04-07","MEAN_MOTION_DOT":"-0.00000132","RCS_SIZE":"LARGE","BSTAR":"0.00001002500000","FILE":"3231910","ECCENTRICITY":"0.00018210","MEAN_MOTION":"15.06393062"},{"MEAN_MOTION_DDOT":"0.0000000000000","REF_FRAME":"TEME","INCLINATION":"53.0549","OBJECT_TYPE":"PAYLOAD","SEMIMAJOR_AXIS":"6925.366","TLE_LINE2":"2 48128  53.0549 252.1641 0003133  59.4177 300.7121 15.06394329 38686","GP_ID":"191011632","EPHEMERIS_TYPE":"0","OBJECT_NAME":"STARLINK-2469","COUNTRY_CODE":"US","TIME_SYSTEM":"UTC","PERIOD":"95.593","MEAN_ELEMENT_THEORY":"SGP4","MEAN_MOTION":"15.06394329","ECCENTRICITY":"0.00031330","BSTAR":"0.00003148900000","FILE":"3231740","APOAPSIS":"549.401","CLASSIFICATION_TYPE":"U","LAUNCH_DATE":"2021-04-07","MEAN_MOTION_DOT":"0.00000187","PERIAPSIS":"545.061","RCS_SIZE":"LARGE","REV_AT_EPOCH":"3868","DECAY_DATE":null,"TLE_LINE1":"1 48128U 21027AN  21337.48541462  .00000187  00000-0  31489-4 0  9990","EPOCH":"2021-12-03T11:38:59.823168","RA_OF_ASC_NODE":"252.1641","ARG_OF_PERICENTER":"59.4177","OBJECT_ID":"2021-027AN","MEAN_ANOMALY":"300.7121","NORAD_CAT_ID":"48128","SITE":"AFETR","ELEMENT_SET_NO":"999","CENTER_NAME":"EARTH"}];
